CCSDS_OMM_VERS = 2.0
CREATION_DATE  = 
ORIGINATOR     = 

OBJECT_NAME    = STARLINK-36617
OBJECT_ID      = 2026-020T
CENTER_NAME    = EARTH
REF_FRAME      = TEME
TIME_SYSTEM    = UTC
MEAN_ELEMENT_THEORY = SGP/SGP4

EPOCH          = 2026-02-25T06:00:02.000160
MEAN_MOTION    = 15.76356453
ECCENTRICITY   = .0001877
INCLINATION    = 42.9990
RA_OF_ASC_NODE = 217.1090
ARG_OF_PERICENTER = 255.6673
MEAN_ANOMALY   = 340.9793

EPHEMERIS_TYPE = 0
CLASSIFICATION_TYPE = U
NORAD_CAT_ID   = 67634
ELEMENT_SET_NO = 999
REV_AT_EPOCH   = 539
BSTAR          = .1642866E-3
MEAN_MOTION_DOT = .26337E-3
MEAN_MOTION_DDOT = 0

CCSDS_OMM_VERS = 2.0
CREATION_DATE  = 
ORIGINATOR     = 

OBJECT_NAME    = STARLINK-36627
OBJECT_ID      = 2026-020U
CENTER_NAME    = EARTH
REF_FRAME      = TEME
TIME_SYSTEM    = UTC
MEAN_ELEMENT_THEORY = SGP/SGP4

EPOCH          = 2026-02-24T19:11:51.215712
MEAN_MOTION    = 15.76386543
ECCENTRICITY   = .00012235
INCLINATION    = 42.9985
RA_OF_ASC_NODE = 220.3417
ARG_OF_PERICENTER = 266.9558
MEAN_ANOMALY   = 93.1172

EPHEMERIS_TYPE = 0
CLASSIFICATION_TYPE = U
NORAD_CAT_ID   = 67635
ELEMENT_SET_NO = 999
REV_AT_EPOCH   = 405
BSTAR          = .11251426E-3
MEAN_MOTION_DOT = .17889E-3
MEAN_MOTION_DDOT = 0

CCSDS_OMM_VERS = 2.0
CREATION_DATE  = 
ORIGINATOR     = 

OBJECT_NAME    = STARLINK-36624
OBJECT_ID      = 2026-020V
CENTER_NAME    = EARTH
REF_FRAME      = TEME
TIME_SYSTEM    = UTC
MEAN_ELEMENT_THEORY = SGP/SGP4

EPOCH          = 2026-02-24T14:09:46.141632
MEAN_MOTION    = 15.76402431
ECCENTRICITY   = .0001598
INCLINATION    = 42.9983
RA_OF_ASC_NODE = 221.3384
ARG_OF_PERICENTER = 252.4705
MEAN_ANOMALY   = 107.5990

EPHEMERIS_TYPE = 0
CLASSIFICATION_TYPE = U
NORAD_CAT_ID   = 67636
ELEMENT_SET_NO = 999
REV_AT_EPOCH   = 402
BSTAR          = .16706E-2
MEAN_MOTION_DOT = .281219E-2
MEAN_MOTION_DDOT = 0

CCSDS_OMM_VERS = 2.0
CREATION_DATE  = 
ORIGINATOR     = 

OBJECT_NAME    = STARLINK-36610
OBJECT_ID      = 2026-020W
CENTER_NAME    = EARTH
REF_FRAME      = TEME
TIME_SYSTEM    = UTC
MEAN_ELEMENT_THEORY = SGP/SGP4

EPOCH          = 2026-02-24T20:46:14.689920
MEAN_MOTION    = 15.76408479
ECCENTRICITY   = .0001477
INCLINATION    = 42.9983
RA_OF_ASC_NODE = 219.9755
ARG_OF_PERICENTER = 274.5140
MEAN_ANOMALY   = 85.5561

EPHEMERIS_TYPE = 0
CLASSIFICATION_TYPE = U
NORAD_CAT_ID   = 67637
ELEMENT_SET_NO = 999
REV_AT_EPOCH   = 406
BSTAR          = .83123E-3
MEAN_MOTION_DOT = .13734E-2
MEAN_MOTION_DDOT = 0

CCSDS_OMM_VERS = 2.0
CREATION_DATE  = 
ORIGINATOR     = 

OBJECT_NAME    = STARLINK-36599
OBJECT_ID      = 2026-020X
CENTER_NAME    = EARTH
REF_FRAME      = TEME
TIME_SYSTEM    = UTC
MEAN_ELEMENT_THEORY = SGP/SGP4

EPOCH          = 2026-02-25T06:00:02.000160
MEAN_MOTION    = 15.76374149
ECCENTRICITY   = .0001613
INCLINATION    = 42.9989
RA_OF_ASC_NODE = 217.0462
ARG_OF_PERICENTER = 285.9250
MEAN_ANOMALY   = 335.6009

EPHEMERIS_TYPE = 0
CLASSIFICATION_TYPE = U
NORAD_CAT_ID   = 67638
ELEMENT_SET_NO = 999
REV_AT_EPOCH   = 539
BSTAR          = -.4466208E-4
MEAN_MOTION_DOT = -.7756E-4
MEAN_MOTION_DDOT = 0

CCSDS_OMM_VERS = 2.0
CREATION_DATE  = 
ORIGINATOR     = 

OBJECT_NAME    = STARLINK-36595
OBJECT_ID      = 2026-020Y
CENTER_NAME    = EARTH
REF_FRAME      = TEME
TIME_SYSTEM    = UTC
MEAN_ELEMENT_THEORY = SGP/SGP4

EPOCH          = 2026-02-24T10:57:50.256288
MEAN_MOTION    = 15.76563977
ECCENTRICITY   = .00019724
INCLINATION    = 42.9983
RA_OF_ASC_NODE = 222.0536
ARG_OF_PERICENTER = 260.1427
MEAN_ANOMALY   = 99.9220

EPHEMERIS_TYPE = 0
CLASSIFICATION_TYPE = U
NORAD_CAT_ID   = 67639
ELEMENT_SET_NO = 999
REV_AT_EPOCH   = 400
BSTAR          = .27941125E-2
MEAN_MOTION_DOT = .485798E-2
MEAN_MOTION_DDOT = 0

CCSDS_OMM_VERS = 2.0
CREATION_DATE  = 
ORIGINATOR     = 

OBJECT_NAME    = STARLINK-36570
OBJECT_ID      = 2026-020Z
CENTER_NAME    = EARTH
REF_FRAME      = TEME
TIME_SYSTEM    = UTC
MEAN_ELEMENT_THEORY = SGP/SGP4

EPOCH          = 2026-02-24T17:34:18.558336
MEAN_MOTION    = 15.76471909
ECCENTRICITY   = .00008025
INCLINATION    = 42.9981
RA_OF_ASC_NODE = 220.6908
ARG_OF_PERICENTER = 244.5539
MEAN_ANOMALY   = 115.5248

EPHEMERIS_TYPE = 0
CLASSIFICATION_TYPE = U
NORAD_CAT_ID   = 67640
ELEMENT_SET_NO = 999
REV_AT_EPOCH   = 404
BSTAR          = .21079116E-2
MEAN_MOTION_DOT = .359417E-2
MEAN_MOTION_DDOT = 0

CCSDS_OMM_VERS = 2.0
CREATION_DATE  = 
ORIGINATOR     = 

OBJECT_NAME    = STARLINK-36514
OBJECT_ID      = 2026-020AA
CENTER_NAME    = EARTH
REF_FRAME      = TEME
TIME_SYSTEM    = UTC
MEAN_ELEMENT_THEORY = SGP/SGP4

EPOCH          = 2026-02-25T06:00:02.000160
MEAN_MOTION    = 15.76360469
ECCENTRICITY   = .00016151
INCLINATION    = 42.9990
RA_OF_ASC_NODE = 217.0147
ARG_OF_PERICENTER = 271.2994
MEAN_ANOMALY   = 2.6671

EPHEMERIS_TYPE = 0
CLASSIFICATION_TYPE = U
NORAD_CAT_ID   = 67641
ELEMENT_SET_NO = 999
REV_AT_EPOCH   = 539
BSTAR          = .1234057E-3
MEAN_MOTION_DOT = .19649E-3
MEAN_MOTION_DDOT = 0

CCSDS_OMM_VERS = 2.0
CREATION_DATE  = 
ORIGINATOR     = 

OBJECT_NAME    = STARLINK-36556
OBJECT_ID      = 2026-020AB
CENTER_NAME    = EARTH
REF_FRAME      = TEME
TIME_SYSTEM    = UTC
MEAN_ELEMENT_THEORY = SGP/SGP4

EPOCH          = 2026-02-24T21:52:15.684096
MEAN_MOTION    = 15.76485354
ECCENTRICITY   = .0001808
INCLINATION    = 42.9995
RA_OF_ASC_NODE = 219.4463
ARG_OF_PERICENTER = 288.3685
MEAN_ANOMALY   = 71.6988

EPHEMERIS_TYPE = 0
CLASSIFICATION_TYPE = U
NORAD_CAT_ID   = 67642
ELEMENT_SET_NO = 999
REV_AT_EPOCH   = 407
BSTAR          = .17708E-2
MEAN_MOTION_DOT = .299883E-2
MEAN_MOTION_DDOT = 0

CCSDS_OMM_VERS = 2.0
CREATION_DATE  = 
ORIGINATOR     = 

OBJECT_NAME    = STARLINK-36533
OBJECT_ID      = 2026-020AC
CENTER_NAME    = EARTH
REF_FRAME      = TEME
TIME_SYSTEM    = UTC
MEAN_ELEMENT_THEORY = SGP/SGP4

EPOCH          = 2026-02-24T19:08:42.418752
MEAN_MOTION    = 15.76473462
ECCENTRICITY   = .00020124
INCLINATION    = 42.9977
RA_OF_ASC_NODE = 220.3230
ARG_OF_PERICENTER = 298.1678
MEAN_ANOMALY   = 61.8988

EPHEMERIS_TYPE = 0
CLASSIFICATION_TYPE = U
NORAD_CAT_ID   = 67643
ELEMENT_SET_NO = 999
REV_AT_EPOCH   = 405
BSTAR          = .21422856E-2
MEAN_MOTION_DOT = .365563E-2
MEAN_MOTION_DDOT = 0

CCSDS_OMM_VERS = 2.0
CREATION_DATE  = 
ORIGINATOR     = 

OBJECT_NAME    = STARLINK-36623
OBJECT_ID      = 2026-020AD
CENTER_NAME    = EARTH
REF_FRAME      = TEME
TIME_SYSTEM    = UTC
MEAN_ELEMENT_THEORY = SGP/SGP4

EPOCH          = 2026-02-25T06:00:02.000160
MEAN_MOTION    = 15.76332041
ECCENTRICITY   = .00018152
INCLINATION    = 42.9989
RA_OF_ASC_NODE = 217.4809
ARG_OF_PERICENTER = 279.1283
MEAN_ANOMALY   = 168.2363

EPHEMERIS_TYPE = 0
CLASSIFICATION_TYPE = U
NORAD_CAT_ID   = 67644
ELEMENT_SET_NO = 999
REV_AT_EPOCH   = 539
BSTAR          = .43755306E-3
MEAN_MOTION_DOT = .71257E-3
MEAN_MOTION_DDOT = 0

CCSDS_OMM_VERS = 2.0
CREATION_DATE  = 
ORIGINATOR     = 

OBJECT_NAME    = STARLINK-36619
OBJECT_ID      = 2026-020AE
CENTER_NAME    = EARTH
REF_FRAME      = TEME
TIME_SYSTEM    = UTC
MEAN_ELEMENT_THEORY = SGP/SGP4

EPOCH          = 2026-02-24T17:24:50.965632
MEAN_MOTION    = 15.76463318
ECCENTRICITY   = .00006858
INCLINATION    = 42.9976
RA_OF_ASC_NODE = 220.6360
ARG_OF_PERICENTER = 238.8636
MEAN_ANOMALY   = 121.2167

EPHEMERIS_TYPE = 0
CLASSIFICATION_TYPE = U
NORAD_CAT_ID   = 67645
ELEMENT_SET_NO = 999
REV_AT_EPOCH   = 404
BSTAR          = .17502764E-2
MEAN_MOTION_DOT = .295983E-2
MEAN_MOTION_DDOT = 0

CCSDS_OMM_VERS = 2.0
CREATION_DATE  = 
ORIGINATOR     = 

OBJECT_NAME    = ALSAT-3B
OBJECT_ID      = 2026-021A
CENTER_NAME    = EARTH
REF_FRAME      = TEME
TIME_SYSTEM    = UTC
MEAN_ELEMENT_THEORY = SGP/SGP4

EPOCH          = 2026-02-25T05:37:52.661856
MEAN_MOTION    = 15.23742359
ECCENTRICITY   = .00129211
INCLINATION    = 97.4690
RA_OF_ASC_NODE = 130.6263
ARG_OF_PERICENTER = 173.0632
MEAN_ANOMALY   = 187.0786

EPHEMERIS_TYPE = 0
CLASSIFICATION_TYPE = U
NORAD_CAT_ID   = 67646
ELEMENT_SET_NO = 999
REV_AT_EPOCH   = 382
BSTAR          = .29713223E-3
MEAN_MOTION_DOT = .7087E-4
MEAN_MOTION_DDOT = 0

CCSDS_OMM_VERS = 2.0
CREATION_DATE  = 
ORIGINATOR     = 

OBJECT_NAME    = CZ-2C R/B
OBJECT_ID      = 2026-021B
CENTER_NAME    = EARTH
REF_FRAME      = TEME
TIME_SYSTEM    = UTC
MEAN_ELEMENT_THEORY = SGP/SGP4

EPOCH          = 2026-02-25T05:42:43.065216
MEAN_MOTION    = 15.23728350
ECCENTRICITY   = .01525804
INCLINATION    = 97.6530
RA_OF_ASC_NODE = 131.4592
ARG_OF_PERICENTER = 54.5979
MEAN_ANOMALY   = 306.9399

EPHEMERIS_TYPE = 0
CLASSIFICATION_TYPE = U
NORAD_CAT_ID   = 67647
ELEMENT_SET_NO = 999
REV_AT_EPOCH   = 380
BSTAR          = .37202554E-3
MEAN_MOTION_DOT = .12361E-3
MEAN_MOTION_DDOT = 0

CCSDS_OMM_VERS = 2.0
CREATION_DATE  = 
ORIGINATOR     = 

OBJECT_NAME    = STARLINK-36719
OBJECT_ID      = 2026-022A
CENTER_NAME    = EARTH
REF_FRAME      = TEME
TIME_SYSTEM    = UTC
MEAN_ELEMENT_THEORY = SGP/SGP4

EPOCH          = 2026-02-25T02:01:16.272768
MEAN_MOTION    = 15.75243925
ECCENTRICITY   = .00008295
INCLINATION    = 97.2844
RA_OF_ASC_NODE = 89.4259
ARG_OF_PERICENTER = 53.7298
MEAN_ANOMALY   = 306.4044

EPHEMERIS_TYPE = 0
CLASSIFICATION_TYPE = U
NORAD_CAT_ID   = 67648
ELEMENT_SET_NO = 999
REV_AT_EPOCH   = 356
BSTAR          = .95783477E-3
MEAN_MOTION_DOT = .145535E-2
MEAN_MOTION_DDOT = 0

